OBJECT_NAME,OBJECT_ID,EPOCH,MEAN_MOTION,ECCENTRICITY,INCLINATION,RA_OF_ASC_NODE,ARG_OF_PERICENTER,MEAN_ANOMALY,EPHEMERIS_TYPE,CLASSIFICATION_TYPE,NORAD_CAT_ID,ELEMENT_SET_NO,REV_AT_EPOCH,BSTAR,MEAN_MOTION_DOT,MEAN_MOTION_DDOT
SCD 1,1993-009B,2026-06-20T06:29:18.246048,14.46119646,.00419527,24.9675,188.5396,170.2622,251.9268,0,U,22490,999,76156,.34438293E-4,.313E-5,0
TECHSAT 1B (GO-32),1998-043D,2026-06-20T05:24:28.016064,14.24428866,.00012144,99.0068,164.0607,156.9177,203.2056,0,U,25397,999,45176,.33010559E-4,.3E-6,0
SCD 2,1998-060A,2026-06-20T01:48:34.661088,14.45526782,.0016856,24.9960,54.3455,153.1205,320.9038,0,U,25504,999,46074,.44252353E-4,.341E-5,0
DLR-TUBSAT,1999-029B,2026-06-19T23:31:24.910752,14.52427375,.00138683,98.6694,166.5761,346.6123,13.4702,0,U,25757,999,43365,.23075183E-4,.46E-6,0
TERRA,1999-068A,2026-06-20T05:43:07.823136,14.61105119,.00018268,97.9454,220.6636,179.4678,252.6566,0,U,25994,999,41005,.64371704E-4,.272E-5,0
MAROC-TUBSAT,2001-056D,2026-06-20T00:21:53.826048,13.70262542,.00204093,99.8084,347.9280,134.2122,23.0519,0,U,27004,999,22657,.11359329E-4,-.37E-6,0
AQUA,2002-022A,2026-06-20T06:41:15.887040,14.62161924,.00009872,98.4278,140.6233,55.8208,48.3059,0,U,27424,999,28372,.12075821E-3,.558E-5,0
SHIYAN-1 (SY-1),2004-012A,2026-06-20T04:25:52.174560,15.33824479,.00053065,97.8685,249.4480,22.5113,337.6360,0,U,28220,999,21155,.34056659E-3,.11063E-3,0
AURA,2004-026A,2026-06-20T04:54:07.437600,14.61332824,.00011884,98.3418,127.6826,77.7768,282.3566,0,U,28376,999,16665,.12401544E-3,.564E-5,0
IRS-P5 (CARTOSAT-1),2005-017A,2026-06-20T00:44:44.141280,14.91055438,.00025258,97.5305,193.9666,76.4954,283.6546,0,U,28649,999,14424,.10255078E-3,.963E-5,0
SINAH 1,2005-043D,2026-06-20T06:23:11.240448,14.64159292,.0013136,98.2865,305.6062,266.1725,93.7975,0,U,28893,999,10097,.51787164E-4,.223E-5,0
RESURS-DK 1,2006-021A,2026-06-19T21:04:01.197696,15.13226644,.00068891,69.9330,332.5885,290.5027,69.5400,0,U,29228,999,10298,.9000743E-4,.1495E-4,0
ARIRANG-2 (KOMPSAT-2),2006-031A,2026-06-20T07:21:28.490400,14.64661172,.00158474,97.8310,355.6015,65.8168,36.4723,0,U,29268,999,6193,.30030857E-4,.115E-5,0
LAPAN-TUBSAT,2007-001A,2026-06-20T06:49:46.153344,14.85952048,.00121706,98.1342,170.5786,169.2887,190.8589,0,U,29709,999,5161,.54272255E-4,.416E-5,0
HAIYANG-1B,2007-010A,2026-06-20T05:18:39.930336,14.31027534,.00132186,98.3495,152.9488,187.0832,173.0167,0,U,31113,999,107,.41286419E-4,.67E-6,0
COSMO-SKYMED 1,2007-023A,2026-06-20T06:37:56.342784,14.97113076,.00015333,97.8851,3.1578,97.5504,262.5891,0,U,31598,999,3025,.2073465E-3,.2333E-4,0
TERRASAR-X,2007-026A,2026-06-19T11:55:50.815488,15.19151206,.00015727,97.4452,178.1696,90.3933,269.7482,0,U,31698,999,5357,.10103879E-4,.145E-5,0
WORLDVIEW-1 (WV-1),2007-041A,2026-06-20T07:29:01.447584,15.24295229,.00019563,97.3880,291.0107,11.0570,349.0710,0,U,32060,999,4335,.1932452E-3,.4651E-4,0
YAOGAN-3,2007-055A,2026-06-20T06:46:04.584864,14.90788390,.00017352,97.8145,201.1292,81.9892,278.1523,0,U,32289,999,633,.13251846E-3,.1247E-4,0
COSMO-SKYMED 2,2007-059A,2026-06-20T06:23:48.086592,14.82157117,.00013556,97.8887,354.8197,88.2672,271.8697,0,U,32376,999,246,.4134424E-4,.277E-5,0
RADARSAT-2,2007-061A,2026-06-20T07:50:04.758144,14.29982972,.00013112,98.5776,178.2145,83.0810,277.0521,0,U,32382,999,96640,.9458838E-4,.2E-5,0
CARTOSAT-2A,2008-021A,2026-06-20T07:02:31.137216,14.79242333,.00132641,97.7625,219.8964,99.9538,260.3172,0,U,32783,999,97926,.84299184E-4,.577E-5,0
HUANJING 1A (HJ-1A),2008-041A,2026-06-20T06:25:54.185664,14.83994339,.00202467,97.6688,156.9880,125.1167,235.1949,0,U,33320,999,95886,.17902018E-3,.1444E-4,0
HUANJING 1B (HJ-1B),2008-041B,2026-06-20T07:20:31.530336,14.83319647,.00362893,97.6521,160.1865,170.7264,189.4629,0,U,33321,999,95887,.50466128E-4,.366E-5,0
GEOEYE 1,2008-042A,2026-06-20T05:25:25.432320,14.64728052,.00053039,98.1235,245.1187,62.2554,297.9186,0,U,33331,999,95059,.68926308E-4,.32E-5,0
THEOS,2008-049A,2026-06-20T06:43:36.450336,14.20134416,.00011868,98.5564,228.4640,81.9509,278.1802,0,U,33396,999,91840,.15428805E-3,.287E-5,0
COSMO-SKYMED 3,2008-054A,2026-06-20T06:20:07.065024,15.06966952,.00139272,97.8280,29.8851,254.6314,105.3375,0,U,33412,999,95740,.1484854E-3,.2159E-4,0
YAOGAN-4,2008-061A,2026-06-20T06:29:21.442848,14.83205061,.00156327,97.9307,104.7579,63.3642,296.9171,0,U,33446,999,94612,.99189269E-4,.758E-5,0
GOSAT (IBUKI),2009-002A,2026-06-20T04:57:26.151552,14.67540318,.00014723,98.0896,282.2496,79.8858,280.2513,0,U,33492,999,93190,.15399744E-3,.825E-5,0
DEIMOS-1,2009-041A,2026-06-20T07:21:13.953600,14.75239302,.00018424,97.7411,328.3983,127.8041,232.3336,0,U,35681,999,90734,.43147366E-4,.244E-5,0
