SCD 1                   
1 22490U 93009B   26171.27035007  .00000313  00000+0  34438-4 0  9991
2 22490  24.9675 188.5396 0041952 170.2622 251.9268 14.46119646761563
TECHSAT 1B (GO-32)      
1 25397U 98043D   26171.22532426  .00000030  00000+0  33011-4 0  9997
2 25397  99.0068 164.0607 0001214 156.9177 203.2056 14.24428866451764
SCD 2                   
1 25504U 98060A   26171.07540117  .00000341  00000+0  44252-4 0  9999
2 25504  24.9960  54.3455 0016856 153.1205 320.9038 14.45526782460747
DLR-TUBSAT              
1 25757U 99029B   26170.98014943  .00000046  00000+0  23075-4 0  9999
2 25757  98.6694 166.5761 0013868 346.6123  13.4702 14.52427375433651
TERRA                   
1 25994U 99068A   26171.23828499  .00000272  00000+0  64372-4 0  9999
2 25994  97.9454 220.6636 0001826 179.4678 252.6566 14.61105119410054
MAROC-TUBSAT            
1 27004U 01056D   26171.01520632 -.00000037  00000+0  11359-4 0  9994
2 27004  99.8084 347.9280 0020409 134.2122  23.0519 13.70262542226570
AQUA                    
1 27424U 02022A   26171.27865610  .00000558  00000+0  12076-3 0  9993
2 27424  98.4278 140.6233 0000987  55.8208  48.3059 14.62161924283727
SHIYAN-1 (SY-1)         
1 28220U 04012A   26171.18463165  .00011063  00000+0  34057-3 0  9994
2 28220  97.8685 249.4480 0005306  22.5113 337.6360 15.33824479211556
AURA                    
1 28376U 04026A   26171.20425275  .00000564  00000+0  12402-3 0  9998
2 28376  98.3418 127.6826 0001188  77.7768 282.3566 14.61332824166653
IRS-P5 (CARTOSAT-1)     
1 28649U 05017A   26171.03106645  .00000963  00000+0  10255-3 0  9997
2 28649  97.5305 193.9666 0002525  76.4954 283.6546 14.91055438144248
SINAH 1                 
1 28893U 05043D   26171.26610232  .00000223  00000+0  51787-4 0  9999
2 28893  98.2865 305.6062 0013136 266.1725  93.7975 14.64159292100975
RESURS-DK 1             
1 29228U 06021A   26170.87779164  .00001495  00000+0  90007-4 0  9995
2 29228  69.9330 332.5885 0006889 290.5027  69.5400 15.13226644102983
ARIRANG-2 (KOMPSAT-2)   
1 29268U 06031A   26171.30657975  .00000115  00000+0  30031-4 0  9993
2 29268  97.8310 355.6015 0015847  65.8168  36.4723 14.64661172 61933
LAPAN-TUBSAT            
1 29709U 07001A   26171.28456196  .00000416  00000+0  54272-4 0  9997
2 29709  98.1342 170.5786 0012170 169.2887 190.8589 14.85952048 51611
HAIYANG-1B              
1 31113U 07010A   26171.22129549  .00000067  00000+0  41286-4 0  9995
2 31113  98.3495 152.9488 0013218 187.0832 173.0167 14.31027534  1073
COSMO-SKYMED 1          
1 31598U 07023A   26171.27634656  .00002333  00000+0  20735-3 0  9994
2 31598  97.8851   3.1578 0001533  97.5504 262.5891 14.97113076 30254
TERRASAR-X              
1 31698U 07026A   26170.49711592  .00000145  00000+0  10104-4 0  9995
2 31698  97.4452 178.1696 0001572  90.3933 269.7482 15.19151206 53579
WORLDVIEW-1 (WV-1)      
1 32060U 07041A   26171.31182231  .00004651  00000+0  19325-3 0  9999
2 32060  97.3880 291.0107 0001956  11.0570 349.0710 15.24295229 43353
YAOGAN-3                
1 32289U 07055A   26171.28199751  .00001247  00000+0  13252-3 0  9999
2 32289  97.8145 201.1292 0001735  81.9892 278.1523 14.90788390  6339
COSMO-SKYMED 2          
1 32376U 07059A   26171.26652878  .00000277  00000+0  41344-4 0  9998
2 32376  97.8887 354.8197 0001355  88.2672 271.8697 14.82157117  2463
RADARSAT-2              
1 32382U 07061A   26171.32644396  .00000200  00000+0  94588-4 0  9995
2 32382  98.5776 178.2145 0001311  83.0810 277.0521 14.29982972966408
CARTOSAT-2A             
1 32783U 08021A   26171.29341594  .00000577  00000+0  84299-4 0  9992
2 32783  97.7625 219.8964 0013264  99.9538 260.3172 14.79242333979261
HUANJING 1A (HJ-1A)     
1 33320U 08041A   26171.26798826  .00001444  00000+0  17902-3 0  9993
2 33320  97.6688 156.9880 0020246 125.1167 235.1949 14.83994339958863
HUANJING 1B (HJ-1B)     
1 33321U 08041B   26171.30592049  .00000366  00000+0  50466-4 0  9993
2 33321  97.6521 160.1865 0036289 170.7264 189.4629 14.83319647958878
GEOEYE 1                
1 33331U 08042A   26171.22598880  .00000320  00000+0  68926-4 0  9995
2 33331  98.1235 245.1187 0005303  62.2554 297.9186 14.64728052950595
THEOS                   
1 33396U 08049A   26171.28028299  .00000287  00000+0  15429-3 0  9992
2 33396  98.5564 228.4640 0001186  81.9509 278.1802 14.20134416918403
COSMO-SKYMED 3          
1 33412U 08054A   26171.26397066  .00002159  00000+0  14849-3 0  9991
2 33412  97.8280  29.8851 0013927 254.6314 105.3375 15.06966952957407
YAOGAN-4                
1 33446U 08061A   26171.27038707  .00000758  00000+0  99189-4 0  9995
2 33446  97.9307 104.7579 0015632  63.3642 296.9171 14.83205061946128
GOSAT (IBUKI)           
1 33492U 09002A   26171.20655268  .00000825  00000+0  15400-3 0  9990
2 33492  98.0896 282.2496 0001472  79.8858 280.2513 14.67540318931907
DEIMOS-1                
1 35681U 09041A   26171.30641150  .00000244  00000+0  43147-4 0  9996
2 35681  97.7411 328.3983 0001842 127.8041 232.3336 14.75239302907349
